STARLINK-11297 [DTC]    
1 61060U 24164L   24271.25001157 -.00935001  00000+0 -47768-2 0  9990
2 61060  53.1663  37.0023 0000740  81.3625 211.9547 15.82973433  3287
STARLINK-11233 [DTC]    
1 61061U 24164M   24271.58334491 -.00999982  00000+0 -50260-2 0  9996
2 61061  53.1664  35.2977 0001076  52.6556 356.3561 15.83475685  3494
STARLINK-11236 [DTC]    
1 61062U 24164N   24271.25001157 -.00366962  00000+0 -16413-2 0  9999
2 61062  53.1664  36.9456 0000824  92.9744 227.5646 15.84372243  3288
STARLINK-32350          
1 61063U 24164P   24271.58334491 -.01363676  00000+0 -10787-1 0  9993
2 61063  53.1626  35.6790 0001181  60.0497 161.8360 15.73477492  3454
STARLINK-32378          
1 61064U 24164Q   24271.58334491 -.01364311  00000+0 -10792-1 0  9997
2 61064  53.1626  35.6708 0001258  57.1362 168.5819 15.73478091  3445
STARLINK-32321          
1 61065U 24164R   24271.58334491 -.01366900  00000+0 -10816-1 0  9991
2 61065  53.1624  35.6751 0000764  44.6719 179.1287 15.73480873  3493
STARLINK-32381          
1 61066U 24164S   24271.58334491 -.01363333  00000+0 -10784-1 0  9993
2 61066  53.1625  35.6669 0001167  50.3248 177.3100 15.73477535  3453
STARLINK-32368          
1 61067U 24164T   24271.58334491 -.01374461  00000+0 -10882-1 0  9997
2 61067  53.1622  35.6633 0000448  62.9633 166.5849 15.73486610  3454
STARLINK-32385          
1 61068U 24164U   24271.58334491 -.01363214  00000+0 -10784-1 0  9993
2 61068  53.1621  35.6513 0000879  60.6211 174.6801 15.73478098  3499
STARLINK-32380          
1 61069U 24164V   24271.58334491 -.01377324  00000+0 -10902-1 0  9993
2 61069  53.1626  35.6553 0000966  89.3428 144.0305 15.73493367  3456
STARLINK-32375          
1 61070U 24164W   24271.58334491 -.01393325  00000+0 -11044-1 0  9992
2 61070  53.1624  35.6597 0000399  61.9801 169.4781 15.73500415  3491
QAEM 100 R/B            
1 61071U 24165A   24270.91764688  .00006570  00000+0  47249-3 0  9993
2 61071  64.0959 298.6294 0006719 248.5533 111.4864 15.05045796  1900
CHAMRAN-1               
1 61072U 24165B   24271.49489497  .00011555  00000+0  73254-3 0  9994
2 61072  64.0907 296.5849 0020441 302.7106  57.2037 15.09116548  1990
POLARIS DAWN DEB [TRUNK]
1 61073U 24161B   24271.12527822  .02488659  11621-4  12304-2 0  9995
2 61073  51.6464 300.2182 0090469 113.7253 349.1542 16.10841164  1901
2024-166A               
1 61179U 24166A   24271.49056734  .00059367  00000+0  33244-3 0  9995
2 61179  96.7666 166.7106 0013111 199.4483 160.6287 15.79042720  1613
2024-166B               
1 61180U 24166B   24271.55380907  .00056869  00000+0  31821-3 0  9999
2 61180  96.7667 166.7730 0013176 198.8596 161.2187 15.79066418  1603
QAEM 100 DEB            
1 61181U 24165C   24271.15616714  .00130689  00000+0  79341-2 0  9994
2 61181  64.1231 297.6750 0011179 297.9947  62.0037 15.09661314  1654
2024-167A               
1 61182U 24167A   24269.90000000  .00000008  00000+0  00000+0 0  9996
2 61182  55.4050 238.5950 0013651 273.6320 132.6630  1.73084697   130
2024-167B               
1 61183U 24167B   24269.90000000  .00000008  00000+0  00000+0 0  9997
2 61183  55.4070 238.6000 0010040   5.6150  34.4760  1.72615639   131
2024-167C               
1 61184U 24167C   24264.90000000  .00000022  00000+0  00000+0 0  9999
2 61184  55.4100 238.7340 0010570 328.7540 202.9320  1.72486994    48
2024-168A               
1 61185U 24168A   24269.87045114 -.00000085  00000+0  00000+0 0  9997
2 61185  54.9363 323.9778 0079144 294.2074  65.0287  1.80096256   134
2024-168B               
1 61186U 24168B   24271.35567181 -.00000080  00000+0  00000+0 0  9992
2 61186  54.9821 323.9341 0117762 177.1475 150.1580  1.82969086   148
2024-168C               
1 61187U 24168C   24271.58646865 -.00000078  00000+0  00000+0 0  9992
2 61187  54.9929 323.9251 0066542 179.8810 305.9723  1.84326658   153
2024-168D               
1 61188U 24168D   24271.33845371  .00146498  79518-6  18917-2 0  9991
2 61188  55.0081 319.4864 5816329 172.8388 201.9858  4.42829257   355
2024-169A               
1 61189U 24169A   24268.66099152  .00013592  00000+0  86653-3 0  9997
2 61189  97.5971 354.0233 0009737 249.4231 110.5953 15.08801584   673
2024-169B               
1 61190U 24169B   24271.51228038  .00011971  00000+0  76772-3 0  9994
2 61190  97.5882 356.8368 0008805 245.4730 114.5581 15.08623779  1108
2024-169C               
1 61191U 24169C   24271.51053125  .00014022  00000+0  87733-3 0  9997
2 61191  97.5953 356.8457 0010255 240.0850 119.9361 15.09479145  1105
2024-169D               
1 61192U 24169D   24271.24504195  .00013940  00000+0  87038-3 0  9992
2 61192  97.5879 356.5774 0011591 242.6915 117.3134 15.09545077  1069
2024-169E               
1 61193U 24169E   24270.91286049  .00002467  00000+0  15603-3 0  9992
2 61193  97.5978 356.2584 0012602 250.8625 109.1240 15.09901226  1013
2024-169F               
1 61194U 24169F   24271.50625171  .00016137  00000+0  95921-3 0  9992
2 61194  97.5956 356.8516 0016748 264.6742  95.2577 15.11239897  1108
2024-170A               
1 61195U 24170A   24271.51914412  .00000161  00000+0  15462-3 0  9997
2 61195  44.8570  67.1756 0007216 311.3298  48.6917 14.13515891   998
2024-170B               
1 61196U 24170B   24271.51888725  .00000428  00000+0  29553-3 0  9997
2 61196  44.8582  67.1758 0006452 317.4506  42.5830 14.13462134   992
2024-170C               
1 61197U 24170C   24271.52046675  .00000332  00000+0  24652-3 0  9998
2 61197  44.8620  67.1901 0007190 305.6776  54.3390 14.13178748   991
2024-170D               
1 61198U 24170D   24271.52099554  .00000484  00000+0  32788-3 0  9990
2 61198  44.8608  67.1915 0007379 304.6817  55.3324 14.13043138  1013
KZ-1A R/B               
1 61199U 24170E   24271.12779560  .00177034  12762-4  16895-2 0  9998
2 61199  44.7445  64.8974 0509907 148.8263 214.3928 14.82546136  1006
STARLINK-11209 [DTC]    
1 61200U 24171A   24271.16667824 -.00791173  00000+0 -31866-2 0  9995
2 61200  53.1647 263.9946 0000834  89.8145  28.0668 15.87511425  2265
STARLINK-11257 [DTC]    
1 61201U 24171B   24271.16667824 -.00736467  00000+0 -28596-2 0  9997
2 61201  53.1646 263.9832 0000856 111.7728  11.6612 15.88118963  2263
STARLINK-11309 [DTC]    
1 61202U 24171C   24271.16667824 -.00693226  00000+0 -26079-2 0  9997
2 61202  53.1645 263.9723 0000787 106.8517  21.7430 15.88650921  2261
STARLINK-11292 [DTC]    
1 61203U 24171D   24271.16667824 -.00655716  00000+0 -23989-2 0  9997
2 61203  53.1645 263.9628 0000614 113.8451  19.4234 15.89120289  2266
STARLINK-11302 [DTC]    
1 61204U 24171E   24271.16667824 -.00627456  00000+0 -22374-2 0  9995
2 61204  53.1644 263.9523 0000622 111.9381  26.2207 15.89562308  2268
STARLINK-11277 [DTC]    
1 61205U 24171F   24271.16667824 -.00573852  00000+0 -19594-2 0  9996
2 61205  53.1645 263.9363 0000675 114.0002  31.8834 15.90292616  2266
STARLINK-11279 [DTC]    
1 61206U 24171G   24271.50001157 -.00514090  00000+0 -17469-2 0  9994
2 61206  53.1641 262.2347 0000460  78.4793 181.2136 15.90256441  2316
STARLINK-11091 [DTC]    
1 61207U 24171H   24271.50001157 -.00554975  00000+0 -19678-2 0  9995
2 61207  53.1642 262.2537 0000467  87.7854 162.8015 15.89513497  2267
STARLINK-11291 [DTC]    
1 61208U 24171J   24271.16667824 -.00571467  11177-3 -17640-2 0  9990
2 61208  53.1645 263.9197 0000584 103.4169  50.4630 15.90963593  2269
STARLINK-11304 [DTC]    
1 61209U 24171K   24271.58334491 -.00556598  10666-3 -17287-2 0  9995
2 61209  53.1641 261.7934 0000436  89.9281 295.5000 15.90839475  2321
STARLINK-11307 [DTC]    
1 61210U 24171L   24271.50001157 -.00490872  86338-4 -14948-2 0  9992
2 61210  53.1639 262.2095 0000437  67.5042 204.3188 15.91201467  2311
STARLINK-11298 [DTC]    
1 61211U 24171M   24271.16667824 -.00524018  97064-4 -15455-2 0  9996
2 61211  53.1644 263.8974 0000547  90.5268  74.0745 15.91831438  2261
STARLINK-11310 [DTC]    
1 61212U 24171N   24271.16667824 -.00507592  92135-4 -14787-2 0  9996
2 61212  53.1642 263.8918 0000567  91.7851  75.5858 15.92063391  2268
STARLINK-32386          
1 61213U 24171P   24271.50001157 -.01028995  00000+0 -46138-2 0  9992
2 61213  53.1634 262.2824 0000487  73.9442 162.4062 15.85907928  2312
STARLINK-32392          
1 61214U 24171Q   24271.16667824 -.01108375  00000+0 -47814-2 0  9997
2 61214  53.1637 263.9532 0000759  77.6196  59.9261 15.86881503  2265
STARLINK-32436          
1 61215U 24171R   24271.16667824 -.01088133  00000+0 -47049-2 0  9997
2 61215  53.1637 263.9591 0000735 104.2378  30.4975 15.86785769  2267
STARLINK-32425          
1 61216U 24171S   24271.50001157 -.01093838  00000+0 -48845-2 0  9990
2 61216  53.1636 262.2643 0000932  70.5083 174.5445 15.86146057  2313
STARLINK-32342          
1 61217U 24171T   24271.16667824 -.01152177  00000+0 -49505-2 0  9998
2 61217  53.1637 263.9416 0000716  88.0507  55.0958 15.87070645  2262
STARLINK-32423          
1 61218U 24171U   24271.16667824 -.01184868  00000+0 -49842-2 0  9995
2 61218  53.1638 263.9374 0000812  81.0781  64.1310 15.87142824  2263
STARLINK-32248          
1 61219U 24171V   24271.50001157 -.01134333  00000+0 -50407-2 0  9996
2 61219  53.1637 262.2505 0001132  82.8752 169.0191 15.86343143  2318
2024-172A               
1 61220U 24172A   24271.22111715  .00008428  00000+0  12054-2 0  9998
2 61220  98.0177 357.6583 0000689  43.2425 316.8839 14.76878548   922
2024-172B               
1 61221U 24172B   24271.15307857  .00007980  00000+0  11401-2 0  9992
2 61221  98.0176 357.5915 0000808  39.3918 320.7350 14.76944526   917
2024-172C               
1 61222U 24172C   24271.15270889  .00008926  00000+0  12713-2 0  9995
2 61222  98.0176 357.5921 0000528 146.2667 213.8577 14.77039366   914
